{
  "type": "FeatureCollection",
  "features": [
    {
      "type": "Feature",
      "properties": {
        "norad_id": 29268,
        "name": "ARIRANG-2 (KOMPSAT-2)",
        "group": "resource",
        "lat": 15.987427906492483,
        "lon": 4.676470314737622,
        "alt_km": 683.965759497516,
        "timestamp": "2025-12-20T07:33:50.460109+00:00",
        "meta_object_name": "ARIRANG-2 (KOMPSAT-2)",
        "meta_object_id": "2006-031A",
        "meta_epoch": "2025-12-19T23:20:23.060832",
        "meta_mean_motion": 14.64500481,
        "meta_eccentricity": 0.00132033,
        "meta_inclination": 97.8254,
        "meta_ra_of_asc_node": 182.0925,
        "meta_arg_of_pericenter": 284.3461,
        "meta_mean_anomaly": 233.9494,
        "meta_ephemeris_type": 0,
        "meta_classification_type": "U",
        "meta_norad_cat_id": 29268,
        "meta_element_set_no": 999,
        "meta_rev_at_epoch": 3524,
        "meta_bstar": 9.2936198e-05,
        "meta_mean_motion_dot": 4.48e-06,
        "meta_mean_motion_ddot": 0,
        "tle_line1": "1 29268U 06031A   25353.97248913  .00000448  00000+0  92936-4 0  9996",
        "tle_line2": "2 29268  97.8254 182.0925 0013203 284.3461 233.9494 14.64500481 35249"
      },
      "geometry": {
        "type": "Point",
        "coordinates": [
          4.676470314737622,
          15.987427906492483
        ]
      }
    },
    {
      "type": "Feature",
      "properties": {
        "norad_id": 29709,
        "name": "LAPAN-TUBSAT",
        "group": "resource",
        "lat": -44.25418648634602,
        "lon": -7.3715461135699245,
        "alt_km": 619.1816972960496,
        "timestamp": "2025-12-20T07:33:50.460120+00:00",
        "meta_object_name": "LAPAN-TUBSAT",
        "meta_object_id": "2007-001A",
        "meta_epoch": "2025-12-19T23:40:59.660832",
        "meta_mean_motion": 14.85679509,
        "meta_eccentricity": 0.00133871,
        "meta_inclination": 98.1251,
        "meta_ra_of_asc_node": 344.2922,
        "meta_arg_of_pericenter": 52.6408,
        "meta_mean_anomaly": 307.6024,
        "meta_ephemeris_type": 0,
        "meta_classification_type": "U",
        "meta_norad_cat_id": 29709,
        "meta_element_set_no": 999,
        "meta_rev_at_epoch": 2454,
        "meta_bstar": 4.2314702e-05,
        "meta_mean_motion_dot": 3.1e-06,
        "meta_mean_motion_ddot": 0,
        "tle_line1": "1 29709U 07001A   25353.98680163  .00000310  00000+0  42315-4 0  9996",
        "tle_line2": "2 29709  98.1251 344.2922 0013387  52.6408 307.6024 14.85679509 24549"
      },
      "geometry": {
        "type": "Point",
        "coordinates": [
          -7.3715461135699245,
          -44.25418648634602
        ]
      }
    },
    {
      "type": "Feature",
      "properties": {
        "norad_id": 31113,
        "name": "HAIYANG-1B",
        "group": "resource",
        "lat": 28.652039785137852,
        "lon": 162.8733488273217,
        "alt_km": 794.1425765191307,
        "timestamp": "2025-12-20T07:33:50.460149+00:00",
        "meta_object_name": "HAIYANG-1B",
        "meta_object_id": "2007-010A",
        "meta_epoch": "2025-12-19T12:24:07.786656",
        "meta_mean_motion": 14.30967225,
        "meta_eccentricity": 0.0013939,
        "meta_inclination": 98.332,
        "meta_ra_of_asc_node": 337.5151,
        "meta_arg_of_pericenter": 18.7934,
        "meta_mean_anomaly": 341.3762,
        "meta_ephemeris_type": 0,
        "meta_classification_type": "U",
        "meta_norad_cat_id": 31113,
        "meta_element_set_no": 999,
        "meta_rev_at_epoch": 97493,
        "meta_bstar": 4.3711e-05,
        "meta_mean_motion_dot": 7.3e-07,
        "meta_mean_motion_ddot": 0,
        "tle_line1": "1 31113U 07010A   25353.51675679  .00000073  00000+0  43711-4 0  9990",
        "tle_line2": "2 31113  98.3320 337.5151 0013939  18.7934 341.3762 14.30967225974935"
      },
      "geometry": {
        "type": "Point",
        "coordinates": [
          162.8733488273217,
          28.652039785137852
        ]
      }
    },
    {
      "type": "Feature",
      "properties": {
        "norad_id": 31598,
        "name": "COSMO-SKYMED 1",
        "group": "resource",
        "lat": -6.939849514824275,
        "lon": -1.2025374498891002,
        "alt_km": 583.9728482083583,
        "timestamp": "2025-12-20T07:33:50.460161+00:00",
        "meta_object_name": "COSMO-SKYMED 1",
        "meta_object_id": "2007-023A",
        "meta_epoch": "2025-12-19T22:42:14.293728",
        "meta_mean_motion": 14.95818364,
        "meta_eccentricity": 0.00015817,
        "meta_inclination": 97.8837,
        "meta_ra_of_asc_node": 179.3924,
        "meta_arg_of_pericenter": 85.2719,
        "meta_mean_anomaly": 274.8682,
        "meta_ephemeris_type": 0,
        "meta_classification_type": "U",
        "meta_norad_cat_id": 31598,
        "meta_element_set_no": 999,
        "meta_rev_at_epoch": 298,
        "meta_bstar": 0.00026363351,
        "meta_mean_motion_dot": 2.884e-05,
        "meta_mean_motion_ddot": 0,
        "tle_line1": "1 31598U 07023A   25353.94599877  .00002884  00000+0  26363-3 0  9998",
        "tle_line2": "2 31598  97.8837 179.3924 0001581  85.2719 274.8682 14.95818364  2987"
      },
      "geometry": {
        "type": "Point",
        "coordinates": [
          -1.2025374498891002,
          -6.939849514824275
        ]
      }
    },
    {
      "type": "Feature",
      "properties": {
        "norad_id": 31698,
        "name": "TERRASAR-X",
        "group": "resource",
        "lat": 60.58365420669054,
        "lon": -167.00383494859926,
        "alt_km": 501.4173953315476,
        "timestamp": "2025-12-20T07:33:50.460172+00:00",
        "meta_object_name": "TERRASAR-X",
        "meta_object_id": "2007-026A",
        "meta_epoch": "2025-12-19T12:04:27.729408",
        "meta_mean_motion": 15.19152518,
        "meta_eccentricity": 0.0001854,
        "meta_inclination": 97.4454,
        "meta_ra_of_asc_node": 358.785,
        "meta_arg_of_pericenter": 93.3795,
        "meta_mean_anomaly": 266.7652,
        "meta_ephemeris_type": 0,
        "meta_classification_type": "U",
        "meta_norad_cat_id": 31698,
        "meta_element_set_no": 999,
        "meta_rev_at_epoch": 2594,
        "meta_bstar": 3.366e-05,
        "meta_mean_motion_dot": 6.4e-06,
        "meta_mean_motion_ddot": 0,
        "tle_line1": "1 31698U 07026A   25353.50309872  .00000640  00000+0  33660-4 0  9995",
        "tle_line2": "2 31698  97.4454 358.7850 0001854  93.3795 266.7652 15.19152518 25944"
      },
      "geometry": {
        "type": "Point",
        "coordinates": [
          -167.00383494859926,
          60.58365420669054
        ]
      }
    },
    {
      "type": "Feature",
      "properties": {
        "norad_id": 32060,
        "name": "WORLDVIEW-1 (WV-1)",
        "group": "resource",
        "lat": -82.26345743013594,
        "lon": -175.6426117772564,
        "alt_km": 499.3463682839292,
        "timestamp": "2025-12-20T07:33:50.460183+00:00",
        "meta_object_name": "WORLDVIEW-1 (WV-1)",
        "meta_object_id": "2007-041A",
        "meta_epoch": "2025-12-19T06:44:54.477312",
        "meta_mean_motion": 15.24792319,
        "meta_eccentricity": 9.533e-05,
        "meta_inclination": 97.3841,
        "meta_ra_of_asc_node": 110.6704,
        "meta_arg_of_pericenter": 118.344,
        "meta_mean_anomaly": 241.7894,
        "meta_ephemeris_type": 0,
        "meta_classification_type": "U",
        "meta_norad_cat_id": 32060,
        "meta_element_set_no": 999,
        "meta_rev_at_epoch": 1547,
        "meta_bstar": 0.00026921224,
        "meta_mean_motion_dot": 6.606e-05,
        "meta_mean_motion_ddot": 0,
        "tle_line1": "1 32060U 07041A   25353.28118608  .00006606  00000+0  26921-3 0  9995",
        "tle_line2": "2 32060  97.3841 110.6704 0000953 118.3440 241.7894 15.24792319 15477"
      },
      "geometry": {
        "type": "Point",
        "coordinates": [
          -175.6426117772564,
          -82.26345743013594
        ]
      }
    },
    {
      "type": "Feature",
      "properties": {
        "norad_id": 32289,
        "name": "YAOGAN-3",
        "group": "resource",
        "lat": -54.395624200518874,
        "lon": -170.21622229209513,
        "alt_km": 606.1138642900414,
        "timestamp": "2025-12-20T07:33:50.460195+00:00",
        "meta_object_name": "YAOGAN-3",
        "meta_object_id": "2007-055A",
        "meta_epoch": "2025-12-19T22:27:10.213632",
        "meta_mean_motion": 14.89888529,
        "meta_eccentricity": 0.00011881,
        "meta_inclination": 97.8359,
        "meta_ra_of_asc_node": 20.4962,
        "meta_arg_of_pericenter": 73.0706,
        "meta_mean_anomaly": 287.0641,
        "meta_ephemeris_type": 0,
        "meta_classification_type": "U",
        "meta_norad_cat_id": 32289,
        "meta_element_set_no": 999,
        "meta_rev_at_epoch": 97916,
        "meta_bstar": 0.00011389968,
        "meta_mean_motion_dot": 1.04e-05,
        "meta_mean_motion_ddot": 0,
        "tle_line1": "1 32289U 07055A   25353.93553488  .00001040  00000+0  11390-3 0  9995",
        "tle_line2": "2 32289  97.8359  20.4962 0001188  73.0706 287.0641 14.89888529979163"
      },
      "geometry": {
        "type": "Point",
        "coordinates": [
          -170.21622229209513,
          -54.395624200518874
        ]
      }
    }
  ]
}